$$SOE
2460728.500000000, A.D. 2025-Feb-22 00:00:00.0000, 1.997424099517943E+08, 3.089413320114750E+08, -1.230039971551663E+07,
2460735.500000000, A.D. 2025-Mar-01 00:00:00.0000, 1.917471975107073E+08, 3.162671818486555E+08, -1.071690559759457E+07,
2460742.500000000, A.D. 2025-Mar-08 00:00:00.0000, 1.835681727803084E+08, 3.232901081016073E+08, -9.123135194056809E+06,
2460749.500000000, A.D. 2025-Mar-15 00:00:00.0000, 1.752158222466620E+08, 3.300080465531598E+08, -7.520748357299671E+06,
2460756.500000000, A.D. 2025-Mar-22 00:00:00.0000, 1.667004506371862E+08, 3.364192214788514E+08, -5.911362265702799E+06,
2460763.500000000, A.D. 2025-Mar-29 00:00:00.0000, 1.580321815627778E+08, 3.425221265841544E+08, -4.296552662991896E+06,
2460770.500000000, A.D. 2025-Apr-05 00:00:00.0000, 1.492209604726319E+08, 3.483155078655807E+08, -2.677855212974191E+06,
2460777.500000000, A.D. 2025-Apr-12 00:00:00.0000, 1.402765579119284E+08, 3.537983484575115E+08, -1.056766774591938E+06,
2460784.500000000, A.D. 2025-Apr-19 00:00:00.0000, 1.312085728187748E+08, 3.589698545430165E+08, 5.652533565878421E+05,
2460791.500000000, A.D. 2025-Apr-26 00:00:00.0000, 1.220264360645499E+08, 3.638294420860333E+08, 2.186782206384867E+06,
2460798.500000000, A.D. 2025-May-03 00:00:00.0000, 1.127394142912790E+08, 3.683767243644644E+08, 3.806431877055272E+06,
2460805.500000000, A.D. 2025-May-10 00:00:00.0000, 1.033566140210468E+08, 3.726115002734755E+08, 5.422848302971780E+06,
2460812.500000000, A.D. 2025-May-17 00:00:00.0000, 9.388698602636802E+07, 3.765337433192112E+08, 7.034710004945427E+06,
2460819.500000000, A.D. 2025-May-24 00:00:00.0000, 8.433933009274574E+07, 3.801435912108310E+08, 8.640726826849401E+06,
2460826.500000000, A.D. 2025-May-31 00:00:00.0000, 7.472230055327313E+07, 3.834413363263593E+08, 1.023963864510959E+07,
2460833.500000000, A.D. 2025-Jun-07 00:00:00.0000, 6.504441216231982E+07, 3.864274182240661E+08, 1.183021418908578E+07,
2460840.500000000, A.D. 2025-Jun-14 00:00:00.0000, 5.531404391687574E+07, 3.891024174962932E+08, 1.341125013683179E+07,
2460847.500000000, A.D. 2025-Jun-21 00:00:00.0000, 4.553944201335265E+07, 3.914670476572526E+08, 1.498157010948342E+07,
2460854.500000000, A.D. 2025-Jun-28 00:00:00.0000, 3.572872504285856E+07, 3.935221468037626E+08, 1.654002342347771E+07,
2460861.500000000, A.D. 2025-Jul-05 00:00:00.0000, 2.588988989154863E+07, 3.952686711795948E+08, 1.808548391696689E+07,
2460868.500000000, A.D. 2025-Jul-12 00:00:00.0000, 1.603081713877161E+07, 3.967076898087071E+08, 1.961684889469865E+07,
2460875.500000000, A.D. 2025-Jul-19 00:00:00.0000, 6.159276126908708E+06, 3.978403795956830E+08, 2.113303812775722E+07,
2460882.500000000, A.D. 2025-Jul-26 00:00:00.0000, -3.717070100569760E+06, 3.986680208129897E+08, 2.263299288486889E+07,
2460889.500000000, A.D. 2025-Aug-02 00:00:00.0000, -1.359065993885269E+07, 3.991919929747601E+08, 2.411567499146381E+07,
2460896.500000000, A.D. 2025-Aug-09 00:00:00.0000, -2.345402842573591E+07, 3.994137710622215E+08, 2.558006591348204E+07,
2460903.500000000, A.D. 2025-Aug-16 00:00:00.0000, -3.329980244126673E+07, 3.993349220190192E+08, 2.702516585398400E+07,
2460910.500000000, A.D. 2025-Aug-23 00:00:00.0000, -4.312069561769199E+07, 3.989571015161435E+08, 2.844999283736271E+07,
2460917.500000000, A.D. 2025-Aug-30 00:00:00.0000, -5.290950263679861E+07, 3.982820516860456E+08, 2.985358180965814E+07,
2460924.500000000, A.D. 2025-Sep-06 00:00:00.0000, -6.265909433595092E+07, 3.973116008141086E+08, 3.123498396695009E+07,
2460931.500000000, A.D. 2025-Sep-13 00:00:00.0000, -7.236241529267423E+07, 3.960476624883144E+08, 3.259326626163256E+07,
2460938.500000000, A.D. 2025-Sep-20 00:00:00.0000, -8.201248061763857E+07, 3.944922325414930E+08, 3.392751065123561E+07,
2460945.500000000, A.D. 2025-Sep-27 00:00:00.0000, -9.160237090465626E+07, 3.926473868849617E+08, 3.523681324677402E+07,
2460952.500000000, A.D. 2025-Oct-04 00:00:00.0000, -1.011252273588420E+08, 3.905152807636800E+08, 3.652028358946231E+07,
2460959.500000000, A.D. 2025-Oct-11 00:00:00.0000, -1.105742474814358E+08, 3.880981484812734E+08, 3.777704401314607E+07,
2460966.500000000, A.D. 2025-Oct-18 00:00:00.0000, -1.199426810320580E+08, 3.853983033157322E+08, 3.900622904457092E+07,
2460973.500000000, A.D. 2025-Oct-25 00:00:00.0000, -1.292238261310316E+08, 3.824181376339035E+08, 4.020698483008531E+07,
2460980.500000000, A.D. 2025-Nov-01 00:00:00.0000, -1.384110254631121E+08, 3.791601232168252E+08, 4.137846858658764E+07,
2460987.500000000, A.D. 2025-Nov-08 00:00:00.0000, -1.474976625489163E+08, 3.756268117601886E+08, 4.251984807089283E+07,
2460994.500000000, A.D. 2025-Nov-15 00:00:00.0000, -1.564771579378499E+08, 3.718208354869466E+08, 4.363030104901288E+07,
2461001.500000000, A.D. 2025-Nov-22 00:00:00.0000, -1.653429649226327E+08, 3.677449080883622E+08, 4.470901474635264E+07,
2461008.500000000, A.D. 2025-Nov-29 00:00:00.0000, -1.740885649329636E+08, 3.634018271266134E+08, 4.575518538588206E+07,
2461015.500000000, A.D. 2025-Dec-06 00:00:00.0000, -1.827074648901626E+08, 3.587944777644308E+08, 4.676801801266035E+07,
2461022.500000000, A.D. 2025-Dec-13 00:00:00.0000, -1.911931960902466E+08, 3.539258344511392E+08, 4.774672628976935E+07,
2461029.500000000, A.D. 2025-Dec-20 00:00:00.0000, -1.995393111264471E+08, 3.487989615842019E+08, 4.869053202916953E+07,
2461036.500000000, A.D. 2025-Dec-27 00:00:00.0000, -2.077393799340634E+08, 3.434170157408930E+08, 4.959866476916541E+07,
2461043.500000000, A.D. 2026-Jan-03 00:00:00.0000, -2.157869864226873E+08, 3.377832488710481E+08, 5.047036148352203E+07,
2461050.500000000, A.D. 2026-Jan-10 00:00:00.0000, -2.236757255907633E+08, 3.319010117760286E+08, 5.130486635791971E+07,
2461057.500000000, A.D. 2026-Jan-17 00:00:00.0000, -2.313992008960210E+08, 3.257737577863134E+08, 5.210143060623455E+07,
2461064.500000000, A.D. 2026-Jan-24 00:00:00.0000, -2.389510218108659E+08, 3.194050466651284E+08, 5.285931232267174E+07,
2461071.500000000, A.D. 2026-Jan-31 00:00:00.0000, -2.463248015472381E+08, 3.127985487356690E+08, 5.357777636825740E+07,
2461078.500000000, A.D. 2026-Feb-07 00:00:00.0000, -2.535141548988707E+08, 3.059580491795392E+08, 5.425609428266627E+07,
2461085.500000000, A.D. 2026-Feb-14 00:00:00.0000, -2.605126959594084E+08, 2.988874524963211E+08, 5.489354419850802E+07,
2461092.500000000, A.D. 2026-Feb-21 00:00:00.0000, -2.673140353428801E+08, 2.915907877072347E+08, 5.548941077182823E+07,
2461099.500000000, A.D. 2026-Feb-28 00:00:00.0000, -2.739117780087470E+08, 2.840722154642808E+08, 5.604298532561623E+07,
2461106.500000000, A.D. 2026-Mar-07 00:00:00.0000, -2.802995237691081E+08, 2.763360351266278E+08, 5.655356623967443E+07,
2461113.500000000, A.D. 2026-Mar-14 00:00:00.0000, -2.864708677174944E+08, 2.683866894821487E+08, 5.702045914513196E+07,
2461120.500000000, A.D. 2026-Mar-21 00:00:00.0000, -2.924193988134436E+08, 2.602287700173387E+08, 5.744297700002067E+07,
2461127.500000000, A.D. 2026-Mar-28 00:00:00.0000, -2.981386986568625E+08, 2.518670237732652E+08, 5.782044031858435E+07,
2461134.500000000, A.D. 2026-Apr-04 00:00:00.0000, -3.036223410803729E+08, 2.433063608338002E+08, 5.815217753539428E+07,
2461141.500000000, A.D. 2026-Apr-11 00:00:00.0000, -3.088638923101258E+08, 2.345518620954426E+08, 5.843752545409501E+07,
2461148.500000000, A.D. 2026-Apr-18 00:00:00.0000, -3.138569115633131E+08, 2.256087873197194E+08, 5.867582977026342E+07,
2461155.500000000, A.D. 2026-Apr-25 00:00:00.0000, -3.185949520676026E+08, 2.164825834903401E+08, 5.886644567055504E+07,
2461162.500000000, A.D. 2026-May-02 00:00:00.0000, -3.230715625062121E+08, 2.071788934528868E+08, 5.900873850863630E+07,
2461169.500000000, A.D. 2026-May-09 00:00:00.0000, -3.272802888016578E+08, 1.977035647780702E+08, 5.910208454732773E+07,
2461176.500000000, A.D. 2026-May-16 00:00:00.0000, -3.312146759006514E+08, 1.880626589937293E+08, 5.914587175023980E+07,
2461183.500000000, A.D. 2026-May-23 00:00:00.0000, -3.348682695511160E+08, 1.782624622135377E+08, 5.913950070842928E+07,
2461190.500000000, A.D. 2026-May-30 00:00:00.0000, -3.382346201961231E+08, 1.683094974855742E+08, 5.908238592559189E+07,
2461197.500000000, A.D. 2026-Jun-06 00:00:00.0000, -3.413072893520553E+08, 1.582105355893492E+08, 5.897395723031628E+07,
2461204.500000000, A.D. 2026-Jun-13 00:00:00.0000, -3.440798548543493E+08, 1.479726044769962E+08, 5.881366100178569E+07,
2461211.500000000, A.D. 2026-Jun-20 00:00:00.0000, -3.465459155279679E+08, 1.376030002716908E+08, 5.860096150074545E+07,
2461218.500000000, A.D. 2026-Jun-27 00:00:00.0000, -3.486990970532072E+08, 1.271092994700118E+08, 5.833534244349486E+07,
2461225.500000000, A.D. 2026-Jul-04 00:00:00.0000, -3.505330591058583E+08, 1.164993715638431E+08, 5.801630876720342E+07,
2461232.500000000, A.D. 2026-Jul-11 00:00:00.0000, -3.520415035967532E+08, 1.057813919374754E+08, 5.764338856379645E+07,
2461239.500000000, A.D. 2026-Jul-18 00:00:00.0000, -3.532181839988533E+08, 9.496385504591033E+07, 5.721613518674608E+07,
2461246.500000000, A.D. 2026-Jul-25 00:00:00.0000, -3.540569158225614E+08, 8.405558784894815E+07, 5.673412953936444E+07,
2461253.500000000, A.D. 2026-Aug-01 00:00:00.0000, -3.545515882817410E+08, 7.306576341600740E+07, 5.619698254712148E+07,
2461260.500000000, A.D. 2026-Aug-08 00:00:00.0000, -3.546961770319187E+08, 6.200391461965234E+07, 5.560433780261574E+07,
2461267.500000000, A.D. 2026-Aug-15 00:00:00.0000, -3.544847576673838E+08, 5.087994831197052E+07, 5.495587439351688E+07,
2461274.500000000, A.D. 2026-Aug-22 00:00:00.0000, -3.539115208452001E+08, 3.970416113696681E+07, 5.425131009481320E+07,
2461281.500000000, A.D. 2026-Aug-29 00:00:00.0000, -3.529707914396459E+08, 2.848725552465800E+07, 5.349040503530125E+07,
2461288.500000000, A.D. 2026-Sep-05 00:00:00.0000, -3.516570497154332E+08, 1.724035290522400E+07, 5.267296542113898E+07,
2461295.500000000, A.D. 2026-Sep-12 00:00:00.0000, -3.499649521849858E+08, 5.975006532175053E+06, 5.179884730715851E+07,
$$EOE